{
  "type": "FeatureCollection",
  "features": [
    {
      "type": "Feature",
      "properties": {
        "norad_id": 2807,
        "name": "OPS 7218 (TRANSIT 16)",
        "group": "nnss",
        "lat": -84.92045563390262,
        "lon": 177.28312510172935,
        "alt_km": 1093.5332612093343,
        "timestamp": "2025-12-25T03:55:56.626154+00:00",
        "meta_object_name": "OPS 7218 (TRANSIT 16)",
        "meta_object_id": "1967-048A",
        "meta_epoch": "2025-12-24T18:35:30.827904",
        "meta_mean_motion": 13.50724692,
        "meta_eccentricity": 0.0022149,
        "meta_inclination": 89.6734,
        "meta_ra_of_asc_node": 353.6169,
        "meta_arg_of_pericenter": 82.0578,
        "meta_mean_anomaly": 91.5393,
        "meta_ephemeris_type": 0,
        "meta_classification_type": "U",
        "meta_norad_cat_id": 2807,
        "meta_element_set_no": 999,
        "meta_rev_at_epoch": 88438,
        "meta_bstar": 0.00013476,
        "meta_mean_motion_dot": 9.7e-07,
        "meta_mean_motion_ddot": 0,
        "tle_line1": "1 02807U 67048A   25358.77466236  .00000097  00000+0  13476-3 0  9995",
        "tle_line2": "2 02807  89.6734 353.6169 0022149  82.0578  91.5393 13.50724692884387"
      },
      "geometry": {
        "type": "Point",
        "coordinates": [
          177.28312510172935,
          -84.92045563390262
        ]
      }
    },
    {
      "type": "Feature",
      "properties": {
        "norad_id": 2965,
        "name": "OPS 4947 (TRANSIT 17)",
        "group": "nnss",
        "lat": 88.79652229712194,
        "lon": 164.8292349704515,
        "alt_km": 1062.0263144226,
        "timestamp": "2025-12-25T03:55:56.626177+00:00",
        "meta_object_name": "OPS 4947 (TRANSIT 17)",
        "meta_object_id": "1967-092A",
        "meta_epoch": "2025-12-24T15:39:13.886784",
        "meta_mean_motion": 13.53456658,
        "meta_eccentricity": 0.0047085,
        "meta_inclination": 89.2486,
        "meta_ra_of_asc_node": 23.5265,
        "meta_arg_of_pericenter": 199.1608,
        "meta_mean_anomaly": 281.0103,
        "meta_ephemeris_type": 0,
        "meta_classification_type": "U",
        "meta_norad_cat_id": 2965,
        "meta_element_set_no": 999,
        "meta_rev_at_epoch": 87258,
        "meta_bstar": 0.0001804,
        "meta_mean_motion_dot": 1.33e-06,
        "meta_mean_motion_ddot": 0,
        "tle_line1": "1 02965U 67092A   25358.65224406  .00000133  00000+0  18040-3 0  9990",
        "tle_line2": "2 02965  89.2486  23.5265 0047085 199.1608 281.0103 13.53456658872583"
      },
      "geometry": {
        "type": "Point",
        "coordinates": [
          164.8292349704515,
          88.79652229712194
        ]
      }
    },
    {
      "type": "Feature",
      "properties": {
        "norad_id": 3133,
        "name": "OPS 7034 (TRANSIT 18)",
        "group": "nnss",
        "lat": 23.281232127303163,
        "lon": 93.68659654037388,
        "alt_km": 1014.6613590465804,
        "timestamp": "2025-12-25T03:55:56.626213+00:00",
        "meta_object_name": "OPS 7034 (TRANSIT 18)",
        "meta_object_id": "1968-012A",
        "meta_epoch": "2025-12-24T18:32:58.947936",
        "meta_mean_motion": 13.51568466,
        "meta_eccentricity": 0.0074953,
        "meta_inclination": 90.0285,
        "meta_ra_of_asc_node": 273.6732,
        "meta_arg_of_pericenter": 134.5685,
        "meta_mean_anomaly": 280.6432,
        "meta_ephemeris_type": 0,
        "meta_classification_type": "U",
        "meta_norad_cat_id": 3133,
        "meta_element_set_no": 999,
        "meta_rev_at_epoch": 57081,
        "meta_bstar": 0.00020607,
        "meta_mean_motion_dot": 1.47e-06,
        "meta_mean_motion_ddot": 0,
        "tle_line1": "1 03133U 68012A   25358.77290449  .00000147  00000+0  20607-3 0  9991",
        "tle_line2": "2 03133  90.0285 273.6732 0074953 134.5685 280.6432 13.51568466570817"
      },
      "geometry": {
        "type": "Point",
        "coordinates": [
          93.68659654037388,
          23.281232127303163
        ]
      }
    },
    {
      "type": "Feature",
      "properties": {
        "norad_id": 4507,
        "name": "NNSS 19 (TRANSIT 19)",
        "group": "nnss",
        "lat": 64.64740911749817,
        "lon": 54.552363821731134,
        "alt_km": 1159.856090718653,
        "timestamp": "2025-12-25T03:55:56.626226+00:00",
        "meta_object_name": "NNSS 19 (TRANSIT 19)",
        "meta_object_id": "1970-067A",
        "meta_epoch": "2025-12-24T16:41:08.378304",
        "meta_mean_motion": 13.51317454,
        "meta_eccentricity": 0.0170208,
        "meta_inclination": 90.0048,
        "meta_ra_of_asc_node": 234.542,
        "meta_arg_of_pericenter": 258.3836,
        "meta_mean_anomaly": 99.8168,
        "meta_ephemeris_type": 0,
        "meta_classification_type": "U",
        "meta_norad_cat_id": 4507,
        "meta_element_set_no": 999,
        "meta_rev_at_epoch": 72383,
        "meta_bstar": 0.00013259,
        "meta_mean_motion_dot": 1.02e-06,
        "meta_mean_motion_ddot": 0,
        "tle_line1": "1 04507U 70067A   25358.69523586  .00000102  00000+0  13259-3 0  9998",
        "tle_line2": "2 04507  90.0048 234.5420 0170208 258.3836  99.8168 13.51317454723830"
      },
      "geometry": {
        "type": "Point",
        "coordinates": [
          54.552363821731134,
          64.64740911749817
        ]
      }
    },
    {
      "type": "Feature",
      "properties": {
        "norad_id": 6909,
        "name": "NNSS 20 (TRANSIT 20)",
        "group": "nnss",
        "lat": 6.759029230398373,
        "lon": -105.11483724974416,
        "alt_km": 901.1043011847914,
        "timestamp": "2025-12-25T03:55:56.626237+00:00",
        "meta_object_name": "NNSS 20 (TRANSIT 20)",
        "meta_object_id": "1973-081A",
        "meta_epoch": "2025-12-24T15:38:35.405952",
        "meta_mean_motion": 13.71440507,
        "meta_eccentricity": 0.015617,
        "meta_inclination": 89.856,
        "meta_ra_of_asc_node": 254.8758,
        "meta_arg_of_pericenter": 43.0124,
        "meta_mean_anomaly": 318.3123,
        "meta_ephemeris_type": 0,
        "meta_classification_type": "U",
        "meta_norad_cat_id": 6909,
        "meta_element_set_no": 999,
        "meta_rev_at_epoch": 80524,
        "meta_bstar": 0.00028034,
        "meta_mean_motion_dot": 2.86e-06,
        "meta_mean_motion_ddot": 0,
        "tle_line1": "1 06909U 73081A   25358.65179868  .00000286  00000+0  28034-3 0  9991",
        "tle_line2": "2 06909  89.8560 254.8758 0156170  43.0124 318.3123 13.71440507805247"
      },
      "geometry": {
        "type": "Point",
        "coordinates": [
          -105.11483724974416,
          6.759029230398373
        ]
      }
    },
    {
      "type": "Feature",
      "properties": {
        "norad_id": 10457,
        "name": "TRANSAT",
        "group": "nnss",
        "lat": 15.296736685030195,
        "lon": 78.25334973315327,
        "alt_km": 1091.7620739421063,
        "timestamp": "2025-12-25T03:55:56.626249+00:00",
        "meta_object_name": "TRANSAT",
        "meta_object_id": "1977-106A",
        "meta_epoch": "2025-12-24T19:31:39.577728",
        "meta_mean_motion": 13.48945426,
        "meta_eccentricity": 0.0026488,
        "meta_inclination": 89.6475,
        "meta_ra_of_asc_node": 78.1693,
        "meta_arg_of_pericenter": 155.2658,
        "meta_mean_anomaly": 320.7199,
        "meta_ephemeris_type": 0,
        "meta_classification_type": "U",
        "meta_norad_cat_id": 10457,
        "meta_element_set_no": 999,
        "meta_rev_at_epoch": 36906,
        "meta_bstar": 0.00012997,
        "meta_mean_motion_dot": 9.2e-07,
        "meta_mean_motion_ddot": 0,
        "tle_line1": "1 10457U 77106A   25358.81365252  .00000092  00000+0  12997-3 0  9994",
        "tle_line2": "2 10457  89.6475  78.1693 0026488 155.2658 320.7199 13.48945426369063"
      },
      "geometry": {
        "type": "Point",
        "coordinates": [
          78.25334973315327,
          15.296736685030195
        ]
      }
    },
    {
      "type": "Feature",
      "properties": {
        "norad_id": 12458,
        "name": "NOVA 1",
        "group": "nnss",
        "lat": -30.993706216423654,
        "lon": -88.70178548861048,
        "alt_km": 1186.9742255356723,
        "timestamp": "2025-12-25T03:55:56.626260+00:00",
        "meta_object_name": "NOVA 1",
        "meta_object_id": "1981-044A",
        "meta_epoch": "2025-12-24T20:15:02.808000",
        "meta_mean_motion": 13.23279733,
        "meta_eccentricity": 0.0015748,
        "meta_inclination": 89.8525,
        "meta_ra_of_asc_node": 91.2141,
        "meta_arg_of_pericenter": 74.27,
        "meta_mean_anomaly": 52.6435,
        "meta_ephemeris_type": 0,
        "meta_classification_type": "U",
        "meta_norad_cat_id": 12458,
        "meta_element_set_no": 999,
        "meta_rev_at_epoch": 15346,
        "meta_bstar": 0.00017986,
        "meta_mean_motion_dot": 8.5e-07,
        "meta_mean_motion_ddot": 0,
        "tle_line1": "1 12458U 81044A   25358.84378250  .00000085  00000+0  17986-3 0  9993",
        "tle_line2": "2 12458  89.8525  91.2141 0015748  74.2700  52.6435 13.23279733153466"
      },
      "geometry": {
        "type": "Point",
        "coordinates": [
          -88.70178548861048,
          -30.993706216423654
        ]
      }
    }
  ]
}